{
  "norad_id": 54659,
  "name": "ONEWEB-0593",
  "history": [
    {
      "epoch": "2026-04-30T15:30:15.875712Z",
      "apogee_km": 1179.307811902294,
      "perigee_km": 1176.2041533007605,
      "latitude_deg": -5.635880947619897e-05,
      "longitude_deg": 162.28376972686794,
      "height_km": 1180.932816118083,
      "semi_major_axis_km": 7555.892982601527,
      "eccentricity": 0.00020538,
      "inclination_deg": 87.9223,
      "raan_deg": 253.4397,
      "arg_perigee_deg": 100.224,
      "mean_anomaly_deg": 259.9125,
      "mean_motion_rev_day": 13.21825314
    },
    {
      "epoch": "2026-05-02T09:17:19.975200Z",
      "apogee_km": 1179.3126311107217,
      "perigee_km": 1176.2041357499793,
      "latitude_deg": 5.335939793836092e-05,
      "longitude_deg": -106.54653717800349,
      "height_km": 1180.9145742403678,
      "semi_major_axis_km": 7555.89538343035,
      "eccentricity": 0.0002057,
      "inclination_deg": 87.9226,
      "raan_deg": 253.0925,
      "arg_perigee_deg": 99.4369,
      "mean_anomaly_deg": 260.6998,
      "mean_motion_rev_day": 13.21824684
    },
    {
      "epoch": "2026-05-03T17:59:22.998336Z",
      "apogee_km": 1179.3338043676513,
      "perigee_km": 1176.1739308068272,
      "latitude_deg": 3.290424732180584e-05,
      "longitude_deg": 121.32418629483503,
      "height_km": 1180.9730451822334,
      "semi_major_axis_km": 7555.890867587239,
      "eccentricity": 0.0002091,
      "inclination_deg": 87.9221,
      "raan_deg": 252.8188,
      "arg_perigee_deg": 101.6057,
      "mean_anomaly_deg": 258.5312,
      "mean_motion_rev_day": 13.21825869
    },
    {
      "epoch": "2026-05-04T19:25:25.538304Z",
      "apogee_km": 1179.3187406247043,
      "perigee_km": 1176.198155804591,
      "latitude_deg": -3.89820959232536e-05,
      "longitude_deg": 98.5602579942643,
      "height_km": 1180.9150743719028,
      "semi_major_axis_km": 7555.895448214647,
      "eccentricity": 0.0002065,
      "inclination_deg": 87.923,
      "raan_deg": 252.61,
      "arg_perigee_deg": 99.4161,
      "mean_anomaly_deg": 260.7206,
      "mean_motion_rev_day": 13.21824667
    },
    {
      "epoch": "2026-05-05T19:02:27.745152Z",
      "apogee_km": 1179.313695181415,
      "perigee_km": 1176.197645044259,
      "latitude_deg": 2.6065640796437594e-06,
      "longitude_deg": 103.1349333428104,
      "height_km": 1180.9149297603722,
      "semi_major_axis_km": 7555.892670112837,
      "eccentricity": 0.0002062,
      "inclination_deg": 87.9232,
      "raan_deg": 252.4138,
      "arg_perigee_deg": 99.528,
      "mean_anomaly_deg": 260.6087,
      "mean_motion_rev_day": 13.21825396
    },
    {
      "epoch": "2026-05-06T20:28:30.292032Z",
      "apogee_km": 1179.3254438668018,
      "perigee_km": 1176.1942802071744,
      "latitude_deg": -2.7576543500078362e-05,
      "longitude_deg": 80.36847726341954,
      "height_km": 1180.9134975859286,
      "semi_major_axis_km": 7555.896862036988,
      "eccentricity": 0.0002072,
      "inclination_deg": 87.9234,
      "raan_deg": 252.2025,
      "arg_perigee_deg": 99.2736,
      "mean_anomaly_deg": 260.8632,
      "mean_motion_rev_day": 13.21824296
    },
    {
      "epoch": "2026-05-07T20:05:32.428896Z",
      "apogee_km": 1179.3066668125266,
      "perigee_km": 1176.196663038043,
      "latitude_deg": 1.857097633045677e-05,
      "longitude_deg": 84.94364546069158,
      "height_km": 1180.8985305796566,
      "semi_major_axis_km": 7555.8886649252845,
      "eccentricity": 0.0002058,
      "inclination_deg": 87.9234,
      "raan_deg": 252.0065,
      "arg_perigee_deg": 99.0839,
      "mean_anomaly_deg": 261.0528,
      "mean_motion_rev_day": 13.21826447
    },
    {
      "epoch": "2026-05-08T19:42:34.709184Z",
      "apogee_km": 1179.3173854603701,
      "perigee_km": 1176.1937794667801,
      "latitude_deg": 1.639369766334363e-05,
      "longitude_deg": 89.5180132552026,
      "height_km": 1180.9033636402312,
      "semi_major_axis_km": 7555.892582463575,
      "eccentricity": 0.0002067,
      "inclination_deg": 87.9236,
      "raan_deg": 251.8103,
      "arg_perigee_deg": 99.0786,
      "mean_anomaly_deg": 261.0582,
      "mean_motion_rev_day": 13.21825419
    },
    {
      "epoch": "2026-05-09T19:19:36.930720Z",
      "apogee_km": 1179.3331241252172,
      "perigee_km": 1176.1762725736462,
      "latitude_deg": 4.122557461207215e-05,
      "longitude_deg": 94.09312828270653,
      "height_km": 1180.893844544275,
      "semi_major_axis_km": 7555.891698349431,
      "eccentricity": 0.0002089,
      "inclination_deg": 87.9239,
      "raan_deg": 251.6146,
      "arg_perigee_deg": 98.6667,
      "mean_anomaly_deg": 261.4704,
      "mean_motion_rev_day": 13.21825651
    },
    {
      "epoch": "2026-05-10T20:45:39.341952Z",
      "apogee_km": 1179.3295722184512,
      "perigee_km": 1176.184809056308,
      "latitude_deg": -1.3429095592981759e-06,
      "longitude_deg": 71.32744129671575,
      "height_km": 1180.880514534293,
      "semi_major_axis_km": 7555.894190637379,
      "eccentricity": 0.0002081,
      "inclination_deg": 87.924,
      "raan_deg": 251.4035,
      "arg_perigee_deg": 98.117,
      "mean_anomaly_deg": 262.02,
      "mean_motion_rev_day": 13.21824997
    },
    {
      "epoch": "2026-05-11T20:22:41.534112Z",
      "apogee_km": 1179.325678770747,
      "perigee_km": 1176.1839389566221,
      "latitude_deg": 1.595587201088625e-05,
      "longitude_deg": 75.90228064241262,
      "height_km": 1180.8753640832872,
      "semi_major_axis_km": 7555.891808863685,
      "eccentricity": 0.0002079,
      "inclination_deg": 87.9242,
      "raan_deg": 251.2074,
      "arg_perigee_deg": 98.0228,
      "mean_anomaly_deg": 262.1142,
      "mean_motion_rev_day": 13.21825622
    },
    {
      "epoch": "2026-05-12T19:59:43.755648Z",
      "apogee_km": 1179.3497822760382,
      "perigee_km": 1176.1581739268886,
      "latitude_deg": 5.428937410475338e-05,
      "longitude_deg": 80.47709865552311,
      "height_km": 1180.8838768748813,
      "semi_major_axis_km": 7555.890978101463,
      "eccentricity": 0.0002112,
      "inclination_deg": 87.9241,
      "raan_deg": 251.0114,
      "arg_perigee_deg": 98.2377,
      "mean_anomaly_deg": 261.8997,
      "mean_motion_rev_day": 13.2182584
    },
    {
      "epoch": "2026-05-13T17:47:45.859200Z",
      "apogee_km": 1179.351570819911,
      "perigee_km": 1176.1584508561318,
      "latitude_deg": 2.983643710586467e-05,
      "longitude_deg": 112.39211536162034,
      "height_km": 1180.878948311301,
      "semi_major_axis_km": 7555.892010838022,
      "eccentricity": 0.0002113,
      "inclination_deg": 87.9242,
      "raan_deg": 250.8305,
      "arg_perigee_deg": 98.0177,
      "mean_anomaly_deg": 262.1197,
      "mean_motion_rev_day": 13.21825569
    }
  ]
}